start=new Date('2023-02-10T00:00:00.000Z').valueOf();
sats=[{"CLASSIFICATION_TYPE":"U","OBJECT_NAME":"STARLINK-2578","PERIOD":"95.592","INCLINATION":"53.0570","SITE":"AFETR","GP_ID":"224909106","OBJECT_TYPE":"PAYLOAD","RA_OF_ASC_NODE":"9.3220","ECCENTRICITY":"0.00012280","LAUNCH_DATE":"2021-05-04","MEAN_MOTION":"15.06401482","DECAY_DATE":null,"APOAPSIS":"548.059","TLE_LINE1":"1 48362U 21038K   23040.29121370  .00008206  00000-0  56914-3 0  9995","PERIAPSIS":"546.359","CENTER_NAME":"EARTH","OBJECT_ID":"2021-038K","MEAN_MOTION_DDOT":"0.0000000000000","REF_FRAME":"TEME","TLE_LINE2":"2 48362  53.0570   9.3220 0001228 110.6827 249.4294 15.06401482 97550","TIME_SYSTEM":"UTC","MEAN_MOTION_DOT":"0.00008206","COUNTRY_CODE":"US","SEMIMAJOR_AXIS":"6925.344","FILE":"3782313","MEAN_ELEMENT_THEORY":"SGP4","REV_AT_EPOCH":"9755","NORAD_CAT_ID":"48362","EPHEMERIS_TYPE":"0","MEAN_ANOMALY":"249.4294","BSTAR":"0.00056914000000","RCS_SIZE":"LARGE","ELEMENT_SET_NO":"999","EPOCH":"2023-02-09T06:59:20.863680","ARG_OF_PERICENTER":"110.6827"},{"BSTAR":"0.00009290400000","RCS_SIZE":"LARGE","ELEMENT_SET_NO":"999","MEAN_ANOMALY":"261.5624","REV_AT_EPOCH":"9762","NORAD_CAT_ID":"48363","EPHEMERIS_TYPE":"0","ARG_OF_PERICENTER":"98.5536","EPOCH":"2023-02-09T07:13:15.772800","OBJECT_ID":"2021-038L","REF_FRAME":"TEME","MEAN_MOTION_DDOT":"0.0000000000000","PERIAPSIS":"546.170","CENTER_NAME":"EARTH","MEAN_ELEMENT_THEORY":"SGP4","FILE":"3782313","COUNTRY_CODE":"US","SEMIMAJOR_AXIS":"6925.352","TLE_LINE2":"2 48363  53.0530   4.2025 0001511  98.5536 261.5624 15.06398919 97620","TIME_SYSTEM":"UTC","MEAN_MOTION_DOT":"0.00001103","LAUNCH_DATE":"2021-05-04","ECCENTRICITY":"0.00015110","RA_OF_ASC_NODE":"4.2025","APOAPSIS":"548.263","TLE_LINE1":"1 48363U 21038L   23040.30087700  .00001103  00000-0  92904-4 0  9995","MEAN_MOTION":"15.06398919","DECAY_DATE":null,"PERIOD":"95.592","INCLINATION":"53.0530","SITE":"AFETR","OBJECT_NAME":"STARLINK-2626","CLASSIFICATION_TYPE":"U","GP_ID":"224909356","OBJECT_TYPE":"PAYLOAD"},{"SITE":"AFETR","INCLINATION":"53.0549","PERIOD":"95.592","CLASSIFICATION_TYPE":"U","OBJECT_NAME":"STARLINK-2611","OBJECT_TYPE":"PAYLOAD","GP_ID":"224910107","LAUNCH_DATE":"2021-05-04","ECCENTRICITY":"0.00014740","RA_OF_ASC_NODE":"4.6386","TLE_LINE1":"1 48364U 21038M   23040.24930001  .00000676  00000-0  64293-4 0  9994","APOAPSIS":"548.233","DECAY_DATE":null,"MEAN_MOTION":"15.06400512","MEAN_MOTION_DDOT":"0.0000000000000","REF_FRAME":"TEME","OBJECT_ID":"2021-038M","CENTER_NAME":"EARTH","PERIAPSIS":"546.191","FILE":"3782313","MEAN_ELEMENT_THEORY":"SGP4","SEMIMAJOR_AXIS":"6925.347","COUNTRY_CODE":"US","MEAN_MOTION_DOT":"0.00000676","TLE_LINE2":"2 48364  53.0549   4.6386 0001474  87.0767 273.0391 15.06400512 97613","TIME_SYSTEM":"UTC","ELEMENT_SET_NO":"999","RCS_SIZE":"LARGE","BSTAR":"0.00006429300000","MEAN_ANOMALY":"273.0391","EPHEMERIS_TYPE":"0","NORAD_CAT_ID":"48364","REV_AT_EPOCH":"9761","ARG_OF_PERICENTER":"87.0767","EPOCH":"2023-02-09T05:58:59.520864"},{"MEAN_MOTION":"15.06402228","DECAY_DATE":null,"APOAPSIS":"547.962","TLE_LINE1":"1 48365U 21038N   23040.27508014  .00026424  00000-0  17861-2 0  9999","ECCENTRICITY":"0.00010910","RA_OF_ASC_NODE":"4.3060","LAUNCH_DATE":"2021-05-04","GP_ID":"224910857","OBJECT_TYPE":"PAYLOAD","PERIOD":"95.592","INCLINATION":"53.0550","SITE":"AFETR","CLASSIFICATION_TYPE":"U","OBJECT_NAME":"STARLINK-2608","EPOCH":"2023-02-09T06:36:06.924096","ARG_OF_PERICENTER":"76.0011","MEAN_ANOMALY":"284.1099","REV_AT_EPOCH":"9762","NORAD_CAT_ID":"48365","EPHEMERIS_TYPE":"0","BSTAR":"0.00178610000000","RCS_SIZE":"LARGE","ELEMENT_SET_NO":"999","TLE_LINE2":"2 48365  53.0550   4.3060 0001091  76.0011 284.1099 15.06402228 97622","TIME_SYSTEM":"UTC","MEAN_MOTION_DOT":"0.00026424","MEAN_ELEMENT_THEORY":"SGP4","FILE":"3782313","COUNTRY_CODE":"US","SEMIMAJOR_AXIS":"6925.342","PERIAPSIS":"546.451","CENTER_NAME":"EARTH","OBJECT_ID":"2021-038N","MEAN_MOTION_DDOT":"0.0000000000000","REF_FRAME":"TEME"},{"LAUNCH_DATE":"2021-05-04","ECCENTRICITY":"0.00012670","RA_OF_ASC_NODE":"359.3704","TLE_LINE1":"1 48366U 21038P   23040.26263912  .00034531  00000-0  23252-2 0  9993","APOAPSIS":"548.063","DECAY_DATE":null,"MEAN_MOTION":"15.06409224","SITE":"AFETR","PERIOD":"95.592","INCLINATION":"53.0540","CLASSIFICATION_TYPE":"U","OBJECT_NAME":"STARLINK-2631","OBJECT_TYPE":"PAYLOAD","GP_ID":"224909606","ELEMENT_SET_NO":"999","RCS_SIZE":"LARGE","BSTAR":"0.00232520000000","MEAN_ANOMALY":"250.3464","EPHEMERIS_TYPE":"0","NORAD_CAT_ID":"48366","REV_AT_EPOCH":"9768","ARG_OF_PERICENTER":"109.7662","EPOCH":"2023-02-09T06:18:12.019968","MEAN_MOTION_DDOT":"0.0000000000000","REF_FRAME":"TEME","OBJECT_ID":"2021-038P","CENTER_NAME":"EARTH","PERIAPSIS":"546.308","MEAN_ELEMENT_THEORY":"SGP4","FILE":"3782313","SEMIMAJOR_AXIS":"6925.320","COUNTRY_CODE":"US","MEAN_MOTION_DOT":"0.00034531","TIME_SYSTEM":"UTC","TLE_LINE2":"2 48366  53.0540 359.3704 0001267 109.7662 250.3464 15.06409224 97681"},{"OBJECT_ID":"2021-038Q","MEAN_MOTION_DDOT":"0.0000000000000","REF_FRAME":"TEME","PERIAPSIS":"546.308","CENTER_NAME":"EARTH","COUNTRY_CODE":"US","SEMIMAJOR_AXIS":"6925.337","MEAN_ELEMENT_THEORY":"SGP4","FILE":"3782673","TLE_LINE2":"2 48367  53.0545 359.3887 0001291  99.4588 260.6547 15.06403839 98276","TIME_SYSTEM":"UTC","MEAN_MOTION_DOT":"0.00011562","BSTAR":"0.00079376000000","RCS_SIZE":"LARGE","ELEMENT_SET_NO":"999","REV_AT_EPOCH":"9827","EPHEMERIS_TYPE":"0","NORAD_CAT_ID":"48367","MEAN_ANOMALY":"260.6547","ARG_OF_PERICENTER":"99.4588","EPOCH":"2023-02-09T06:12:53.604864","CLASSIFICATION_TYPE":"U","OBJECT_NAME":"STARLINK-2643","PERIOD":"95.592","INCLINATION":"53.0545","SITE":"AFETR","GP_ID":"224923598","OBJECT_TYPE":"PAYLOAD","LAUNCH_DATE":"2021-05-04","ECCENTRICITY":"0.00012910","RA_OF_ASC_NODE":"359.3887","APOAPSIS":"548.096","TLE_LINE1":"1 48367U 21038Q   23040.25895376  .00011562  00000-0  79376-3 0  9996","MEAN_MOTION":"15.06403839","DECAY_DATE":null},{"SITE":"AFETR","PERIOD":"95.592","INCLINATION":"53.0553","OBJECT_NAME":"STARLINK-2623","CLASSIFICATION_TYPE":"U","OBJECT_TYPE":"PAYLOAD","GP_ID":"224910607","LAUNCH_DATE":"2021-05-04","ECCENTRICITY":"0.00014180","RA_OF_ASC_NODE":"359.4681","TLE_LINE1":"1 48368U 21038R   23040.30321007  .00004059  00000-0  29115-3 0  9997","APOAPSIS":"548.165","DECAY_DATE":null,"MEAN_MOTION":"15.06409818","REF_FRAME":"TEME","MEAN_MOTION_DDOT":"0.0000000000000","OBJECT_ID":"2021-038R","CENTER_NAME":"EARTH","PERIAPSIS":"546.201","FILE":"3782313","MEAN_ELEMENT_THEORY":"SGP4","SEMIMAJOR_AXIS":"6925.318","COUNTRY_CODE":"US","MEAN_MOTION_DOT":"0.00004059","TLE_LINE2":"2 48368  53.0553 359.4681 0001418 100.1244 259.9905 15.06409818 97696","TIME_SYSTEM":"UTC","ELEMENT_SET_NO":"999","RCS_SIZE":"LARGE","BSTAR":"0.00029115000000","MEAN_ANOMALY":"259.9905","EPHEMERIS_TYPE":"0","NORAD_CAT_ID":"48368","REV_AT_EPOCH":"9769","ARG_OF_PERICENTER":"100.1244","EPOCH":"2023-02-09T07:16:37.350048"},{"MEAN_MOTION_DDOT":"0.0000000000000","REF_FRAME":"TEME","OBJECT_ID":"2021-038S","CENTER_NAME":"EARTH","PERIAPSIS":"546.228","SEMIMAJOR_AXIS":"6925.327","COUNTRY_CODE":"US","MEAN_ELEMENT_THEORY":"SGP4","FILE":"3783190","MEAN_MOTION_DOT":"0.00034985","TIME_SYSTEM":"UTC","TLE_LINE2":"2 48369  53.0562 359.4072 0001392 103.8715 256.2429 15.06407028 98272","ELEMENT_SET_NO":"999","RCS_SIZE":"LARGE","BSTAR":"0.00235550000000","EPHEMERIS_TYPE":"0","NORAD_CAT_ID":"48369","REV_AT_EPOCH":"9827","MEAN_ANOMALY":"256.2429","ARG_OF_PERICENTER":"103.8715","EPOCH":"2023-02-09T06:07:35.087808","OBJECT_NAME":"STARLINK-2641","CLASSIFICATION_TYPE":"U","SITE":"AFETR","INCLINATION":"53.0562","PERIOD":"95.592","OBJECT_TYPE":"PAYLOAD","GP_ID":"224935107","LAUNCH_DATE":"2021-05-04","ECCENTRICITY":"0.00013920","RA_OF_ASC_NODE":"359.4072","TLE_LINE1":"1 48369U 21038S   23040.25526722  .00034985  00000-0  23555-2 0  9995","APOAPSIS":"548.156","DECAY_DATE":null,"MEAN_MOTION":"15.06407028"},{"TLE_LINE2":"2 48370  53.0551 359.4206 0001714  99.9431 260.1752 15.06373873 98272","TIME_SYSTEM":"UTC","MEAN_MOTION_DOT":"-0.00003579","COUNTRY_CODE":"US","SEMIMAJOR_AXIS":"6925.429","MEAN_ELEMENT_THEORY":"SGP4","FILE":"3782676","PERIAPSIS":"546.107","CENTER_NAME":"EARTH","OBJECT_ID":"2021-038T","REF_FRAME":"TEME","MEAN_MOTION_DDOT":"0.0000000000000","EPOCH":"2023-02-09T06:02:16.559520","ARG_OF_PERICENTER":"99.9431","REV_AT_EPOCH":"9827","EPHEMERIS_TYPE":"0","NORAD_CAT_ID":"48370","MEAN_ANOMALY":"260.1752","ELEMENT_SET_NO":"999","RCS_SIZE":"LARGE","BSTAR":"-0.00022164000000","GP_ID":"224923906","OBJECT_TYPE":"PAYLOAD","OBJECT_NAME":"STARLINK-2621","CLASSIFICATION_TYPE":"U","INCLINATION":"53.0551","PERIOD":"95.594","SITE":"AFETR","MEAN_MOTION":"15.06373873","DECAY_DATE":null,"APOAPSIS":"548.481","TLE_LINE1":"1 48370U 21038T   23040.25158055 -.00003579  00000-0 -22164-3 0  9990","ECCENTRICITY":"0.00017140","RA_OF_ASC_NODE":"359.4206","LAUNCH_DATE":"2021-05-04"},{"EPOCH":"2023-02-09T07:32:30.372288","ARG_OF_PERICENTER":"96.9289","NORAD_CAT_ID":"48371","EPHEMERIS_TYPE":"0","REV_AT_EPOCH":"9769","MEAN_ANOMALY":"263.1848","RCS_SIZE":"LARGE","BSTAR":"0.00030664000000","ELEMENT_SET_NO":"999","MEAN_MOTION_DOT":"0.00004289","TIME_SYSTEM":"UTC","TLE_LINE2":"2 48371  53.0548 359.1371 0001297  96.9289 263.1848 15.06403816 97698","SEMIMAJOR_AXIS":"6925.337","COUNTRY_CODE":"US","MEAN_ELEMENT_THEORY":"SGP4","FILE":"3782313","CENTER_NAME":"EARTH","PERIAPSIS":"546.304","MEAN_MOTION_DDOT":"0.0000000000000","REF_FRAME":"TEME","OBJECT_ID":"2021-038U","DECAY_DATE":null,"MEAN_MOTION":"15.06403816","TLE_LINE1":"1 48371U 21038U   23040.31424042  .00004289  00000-0  30664-3 0  9991","APOAPSIS":"548.100","RA_OF_ASC_NODE":"359.1371","ECCENTRICITY":"0.00012970","LAUNCH_DATE":"2021-05-04","OBJECT_TYPE":"PAYLOAD","GP_ID":"224909357","CLASSIFICATION_TYPE":"U","OBJECT_NAME":"STARLINK-2589","SITE":"AFETR","PERIOD":"95.592","INCLINATION":"53.0548"}];
